1 41621U 16040Y   16277.13624511  .00005658  00000-0  26574-3 0  9992
2 41621  97.5012 335.7088 0012058 246.9859 113.0104 15.19961146 15619
1 41752U 16054A   16277.56901238 -.00000091  00000-0  00000+0 0  9992
2 41752   0.0896 273.6664 0013681 350.2664  27.6053  1.00272630   287
1 41590U 16038C   16275.70637484 -.00000003  00000-0  55338-3 0  9998
2 41590  23.5075 293.5627 8224794 203.9892  67.3662  1.17722176  1269
1 41028U 15065A   16276.70738876 -.00000275 +00000-0 +00000-0 0  9995
2 41028 000.0577 090.6097 0001039 120.5759 148.8283 01.00273699003317
1 41469U 16027A   16276.36268062 -.00000359 +00000-0 +00000-0 0  9993
2 41469 004.7729 272.0147 0002686 256.4269 103.2408 01.00277018001650
1 27525U 02043A   16276.92121321 -.00000087 +00000-0 +00000-0 0  9999
2 27525 005.9153 056.9308 0014444 214.5069 145.5077 01.00270157051526
1 26089U 00011A   16277.09134138  .00000117  00000-0  00000+0 0  9997
2 26089   1.3449 131.4915 0006347  80.6298 224.9285  0.99911064 60912
1 40930U 15052A   16277.37491769  .00000716  00000-0  11683-4 0  9995
2 40930   5.9962 264.9380 0009477 197.3955 162.6790 14.76033663 54949
1 41783U 16059A   16277.80811948  .00000167  00000-0  42129-4 0  9992
2 41783  98.2061 335.3151 0032336 243.7686 222.2808 14.62763978  1126
1 35931U 09051A   16276.85491180  .00000172  00000-0  54736-4 0  9993
2 35931  98.3153   8.5928 0001113 244.7979 115.3100 14.50845418372140
1 35931U 09051A   16276.85491180  .00000172  00000-0  54736-4 0  9993
2 35931  98.3153   8.5928 0001113 244.7979 115.3100 14.50845418372140
1 27807U 03018A   16276.35980381 -.00000205 +00000-0 +00000-0 0  9993
2 27807 004.5263 063.7807 0005712 201.6571 157.7790 00.99845121049035
1 38248U 12017A   16277.53401846  .00000763  00000-0  52298-4 0  9996
2 38248  97.5627 282.6148 0004413 183.1682 270.6212 15.08964739244535
1 40930U 15052A   16277.37491769  .00000716  00000-0  11683-4 0  9995
2 40930   5.9962 264.9380 0009477 197.3955 162.6790 14.76033663 54949
1 37387U 11015A   16277.41269462  .00000009  00000-0  24170-4 0  9990
2 37387  98.7023 350.4248 0003012  20.8074 339.3226 14.21634960283199
1 41240U 16002A   16277.53097766 -.00000061  00000-0  62923-6 0  9992
2 41240  66.0407 295.2256 0007980 266.2077  93.8026 12.80929314 33273
1 35345U 01049QD  16271.67573716 -.00172181  00000-0  00000+0 0  9993
2 35345  97.9819 265.2028 0103718 169.8807 190.5020 14.63620023   801
1 12545U 81057B   16276.09311154 -.00000306  00000-0  00000+0 0  9993
2 12545  13.9110 333.6653 0024102 139.6463 246.4448  1.00042210 86910
